[{"OBJECT_NAME":"STARLINK-35943","OBJECT_ID":"2025-286C","EPOCH":"2026-03-09T22:26:15.278784","MEAN_MOTION":15.30211812,"ECCENTRICITY":0.00011859,"INCLINATION":53.1623,"RA_OF_ASC_NODE":357.3559,"ARG_OF_PERICENTER":104.879,"MEAN_ANOMALY":255.2342,"EPHEMERIS_TYPE":0,"CLASSIFICATION_TYPE":"U","NORAD_CAT_ID":66927,"ELEMENT_SET_NO":999,"REV_AT_EPOCH":1545,"BSTAR":0.00097628406,"MEAN_MOTION_DOT":0.00028678,"MEAN_MOTION_DDOT":0},{"OBJECT_NAME":"CZ-2C DEB","OBJECT_ID":"2018-056F","EPOCH":"2026-03-09T10:57:26.102304","MEAN_MOTION":15.27739248,"ECCENTRICITY":0.00119172,"INCLINATION":98.1188,"RA_OF_ASC_NODE":250.032,"ARG_OF_PERICENTER":4.6998,"MEAN_ANOMALY":355.4349,"EPHEMERIS_TYPE":0,"CLASSIFICATION_TYPE":"U","NORAD_CAT_ID":43534,"ELEMENT_SET_NO":999,"REV_AT_EPOCH":41855,"BSTAR":0.00085537155,"MEAN_MOTION_DOT":0.00023193,"MEAN_MOTION_DDOT":0}]
